CRE (WAAS/PRN 138)      
1 28868U 05036A   22246.21183917 -.00000076  00000+0  00000+0 0  9996
2 28868   0.7504  93.0118 0002672  39.2206 179.0495  1.00271894 62297
IOR-W (EGNOS/PRN 126)   
1 28899U 05044A   22246.01229931  .00000010  00000+0  00000+0 0  9991
2 28899   3.5584  38.0027 0002813 128.6665 243.8043  1.00271652 61635
QZS-1 (QZSS/PRN 183)    
1 37158U 10045A   22245.73263889 -.00000173  00000+0  00000+0 0  9995
2 37158  42.4133 132.3219 0736997 269.9098 339.5504  1.00299093 43861
GSAT-8 (GAGAN/PRN 127)  
1 37605U 11022A   22245.87122765  .00000085  00000+0  00000+0 0  9991
2 37605   0.0186 127.3500 0004238 119.1410 104.1897  1.00271778 39342
LUCH 5A (SDCM/PRN 140)  
1 37951U 11074B   22245.60572497 -.00000048  00000+0  00000+0 0  9994
2 37951   5.2068  96.2281 0004522  39.6085 230.8725  1.00271806 39318
SES-5 (EGNOS/PRN 136)   
1 38652U 12036A   22245.95396616  .00000034  00000+0  00000+0 0  9991
2 38652   0.0618 297.2324 0002300 212.1558 181.0917  1.00273323 37197
GSAT-10 (GAGAN/PRN 128) 
1 38779U 12051B   22246.54146450 -.00000167  00000+0  00000+0 0  9991
2 38779   0.0659 268.9706 0001796 300.4982  51.1253  1.00270943 36421
LUCH 5B (SDCM/PRN 125)  
1 38977U 12061A   22246.20666560 -.00000136  00000+0  00000+0 0  9990
2 38977   7.4560  62.0181 0005529  84.0430 254.4136  1.00271865 36303
ASTRA 5B (EGNOS/PRN 123)
1 39617U 14011B   22246.07263866  .00000154  00000+0  00000+0 0  9995
2 39617   0.0453 331.2910 0004000 192.7356 235.8274  1.00268208 31008
LUCH 5V (SDCM/PRN 141)  
1 39727U 14023A   22246.08528271 -.00000269  00000+0  00000+0 0  9993
2 39727   1.6755  76.3072 0003387 100.9929 290.3506  1.00270174548644
GSAT-15 (GAGAN/PRN 139) 
1 41028U 15065A   22246.54146450 -.00000260  00000+0  00000+0 0  9994
2 41028   0.0428 294.2152 0002836 184.1007 152.7716  1.00272391 24994
E 117 W B (WAAS/PRN 131)
1 41589U 16038B   22246.20739671 -.00000013  00000+0  00000+0 0  9999
2 41589   0.0030 321.2498 0000373 208.1832 130.5555  1.00272503 22837
SES-15 (WAAS/PRN 133)   
1 42709U 17026A   22245.68194574  .00000060  00000+0  00000+0 0  9991
2 42709   0.0398 334.9226 0000400 153.1615 330.0743  1.00267989 20272
QZS-2 (QZSS/PRN 184)    
1 42738U 17028A   22246.35493590 -.00000108  00000+0  00000+0 0  9994
2 42738  41.6466 263.0675 0752577 270.0759  77.9210  1.00266127 19275
QZS-3 (QZSS/PRN 189)    
1 42917U 17048A   22245.82069441 -.00000348  00000+0  00000+0 0  9996
2 42917   0.0534 181.6034 0001808 343.9572 238.8383  1.00274805 18382
QZS-4 (QZSS/PRN 185)    
1 42965U 17062A   22245.99167977 -.00000310  00000+0  00000+0 0  9995
2 42965  40.7521   1.1261 0747144 269.2873 206.9298  1.00285451 17934
GALAXY 30 (WAAS/PRN 135)
1 46114U 20056C   22246.47192963  .00000035  00000+0  00000+0 0  9992
2 46114   0.0154 150.2034 0002632  15.7558 221.5203  1.00272095  7533
